{
  "type": "FeatureCollection",
  "name": "newgeo",
  "crs": {
    "type": "name",
    "properties": {
      "name": "urn:ogc:def:crs:OGC:1.3:CRS84"
    }
  },
  "features": [
    {
      "type": "Feature",
      "properties": {
        "plot_id": "1",
        "boundary_source": "resurvey",
        "area_m2": 1329.495272852946,
        "perimeter_m": 180
      },
      "geometry": {
        "type": "Polygon",
        "coordinates": [
          [
            [
              16.475770352188146,
              47.64310425972345
            ],
            [
              16.475738561231005,
              47.64299299137343
            ],
            [
              16.475722665752432,
              47.6429954368317
            ],
            [
              16.475665197483757,
              47.64301622322676
            ],
            [
              16.475610174673317,
              47.64303823235091
            ],
            [
              16.475556374592003,
              47.64305657328773
            ],
            [
              16.475473229011786,
              47.643158059804755
            ],
            [
              16.47550868815629,
              47.643202078053115
            ],
            [
              16.475569824612332,
              47.643308455486626
            ],
            [
              16.475593056465627,
              47.64336347829706
            ],
            [
              16.47568842933705,
              47.64351387397891
            ],
            [
              16.475755679438695,
              47.64361780595418
            ],
            [
              16.475880397809018,
              47.643699728805274
            ],
            [
              16.47595009336891,
              47.64367405149375
            ],
            [
              16.475885288725504,
              47.643441732960795
            ],
            [
              16.47587795235078,
              47.64339037833771
            ],
            [
              16.475770352188146,
              47.64310425972345
            ]
          ]
        ]
      }
    },
    {
      "type": "Feature",
      "properties": {
        "plot_id": "2",
        "boundary_source": "resurvey",
        "area_m2": 2910.2275330238044,
        "perimeter_m": 224
      },
      "geometry": {
        "type": "Polygon",
        "coordinates": [
          [
            [
              16.475991666159015,
              47.64353099218661
            ],
            [
              16.475912188766163,
              47.64330723275751
            ],
            [
              16.47585227503924,
              47.64313115976408
            ],
            [
              16.475836379560672,
              47.64307858241192
            ],
            [
              16.475818038623856,
              47.64297587316575
            ],
            [
              16.47606992082275,
              47.642935523104775
            ],
            [
              16.476173852798016,
              47.642955086770684
            ],
            [
              16.476217871046366,
              47.6430015504773
            ],
            [
              16.476247216545268,
              47.64305412782949
            ],
            [
              16.476334030312845,
              47.64315316888828
            ],
            [
              16.476407394060097,
              47.64324854175971
            ],
            [
              16.476494207827674,
              47.643346360089375
            ],
            [
              16.476537003346902,
              47.64339526925419
            ],
            [
              16.4765663488458,
              47.64354321947783
            ],
            [
              16.476524776055694,
              47.64360557866297
            ],
            [
              16.476464862328772,
              47.64361046957947
            ],
            [
              16.476436739558995,
              47.64361413776683
            ],
            [
              16.47626555748208,
              47.64363614689099
            ],
            [
              16.47618974827659,
              47.643653265098685
            ],
            [
              16.47615918004857,
              47.6436593787443
            ],
            [
              16.476099266321647,
              47.64366060147342
            ],
            [
              16.476018566199674,
              47.64365326509869
            ],
            [
              16.475991666159015,
              47.64353099218661
            ]
          ]
        ]
      }
    }
  ]
}
