{
  "type": "FeatureCollection",
  "name": "two_plot_old_style_cadastral_sketch",
  "crs_note": "WGS84 lon/lat coordinates transformed from image pixels using a 5-GCP affine fit. EPSG:32633 is provisional and must be verified; boundaries are traced approximations of the user's sketch, not historical survey data.",
  "features": [
    {
      "type": "Feature",
      "properties": {
        "parcel_id": "OLD-01",
        "label": "PLOT 1",
        "boundary_source": "digitized_from_user_rough_sketch",
        "status": "synthetic_demo_not_historical_or_legal_boundary",
        "coordinate_crs": "WGS84_lon_lat",
        "working_projected_crs": "EPSG:32633_provisional",
        "image_vertices_px": [
          [
            395,
            88
          ],
          [
            505,
            95
          ],
          [
            548,
            111
          ],
          [
            550,
            170
          ],
          [
            540,
            255
          ],
          [
            526,
            360
          ],
          [
            505,
            470
          ],
          [
            490,
            585
          ],
          [
            470,
            710
          ],
          [
            430,
            825
          ],
          [
            370,
            935
          ],
          [
            320,
            940
          ],
          [
            245,
            875
          ],
          [
            175,
            805
          ],
          [
            125,
            745
          ],
          [
            150,
            650
          ],
          [
            190,
            545
          ],
          [
            220,
            440
          ],
          [
            245,
            340
          ],
          [
            295,
            245
          ],
          [
            350,
            165
          ],
          [
            382,
            105
          ]
        ],
        "displacement_note": "Visual approximation of requested shifted old boundaries; 20% is not a measured error statistic."
      },
      "geometry": {
        "type": "Polygon",
        "coordinates": [
          [
            [
              16.47579339114382,
              47.64348690703312
            ],
            [
              16.475924612743988,
              47.64347948066728
            ],
            [
              16.475975632432462,
              47.64346583367042
            ],
            [
              16.47597679313422,
              47.6434180100615
            ],
            [
              16.475963081838895,
              47.64334931730859
            ],
            [
              16.475944177420864,
              47.64326448784803
            ],
            [
              16.47591680933671,
              47.643175720000215
            ],
            [
              16.475896502738543,
              47.64308280620862
            ],
            [
              16.475870016953003,
              47.64298187195199
            ],
            [
              16.47581985466401,
              47.6428893572663
            ],
            [
              16.475745911941107,
              47.64280121197685
            ],
            [
              16.475686096298627,
              47.642797960008814
            ],
            [
              16.475597881115693,
              47.642851809073754
            ],
            [
              16.475515740937755,
              47.64290962840848
            ],
            [
              16.475457277287507,
              47.642959028184706
            ],
            [
              16.475489109393017,
              47.64303558188075
            ],
            [
              16.47553906321703,
              47.643119996427515
            ],
            [
              16.47557707478874,
              47.6432045705717
            ],
            [
              16.475609011247343,
              47.64328517437065
            ],
            [
              16.475670699911447,
              47.64336132894068
            ],
            [
              16.475738047895707,
              47.64342525322794
            ],
            [
              16.47577751220193,
              47.64347334408614
            ],
            [
              16.47579339114382,
              47.64348690703312
            ]
          ]
        ]
      }
    },
    {
      "type": "Feature",
      "properties": {
        "parcel_id": "OLD-02",
        "label": "PLOT 2",
        "boundary_source": "digitized_from_user_rough_sketch",
        "status": "synthetic_demo_not_historical_or_legal_boundary",
        "coordinate_crs": "WGS84_lon_lat",
        "working_projected_crs": "EPSG:32633_provisional",
        "image_vertices_px": [
          [
            580,
            112
          ],
          [
            670,
            150
          ],
          [
            760,
            195
          ],
          [
            855,
            230
          ],
          [
            865,
            300
          ],
          [
            850,
            410
          ],
          [
            825,
            540
          ],
          [
            805,
            675
          ],
          [
            780,
            805
          ],
          [
            730,
            875
          ],
          [
            655,
            880
          ],
          [
            575,
            845
          ],
          [
            495,
            805
          ],
          [
            445,
            785
          ],
          [
            475,
            710
          ],
          [
            495,
            600
          ],
          [
            510,
            500
          ],
          [
            530,
            390
          ],
          [
            545,
            275
          ],
          [
            555,
            175
          ]
        ],
        "displacement_note": "Visual approximation of requested shifted old boundaries; 20% is not a measured error statistic."
      },
      "geometry": {
        "type": "Polygon",
        "coordinates": [
          [
            [
              16.47601382753617,
              47.64346451271209
            ],
            [
              16.476120518921654,
              47.64343229457578
            ],
            [
              16.47622706447689,
              47.64339440614316
            ],
            [
              16.476339789255448,
              47.64336453804547
            ],
            [
              16.476350274601586,
              47.64330767636291
            ],
            [
              16.476330071256363,
              47.64321881280055
            ],
            [
              16.476297509292927,
              47.64311390836264
            ],
            [
              16.476270814577177,
              47.643004873923914
            ],
            [
              16.476238252875056,
              47.64289996946269
            ],
            [
              16.476177084268826,
              47.64284406590565
            ],
            [
              16.476087412730124,
              47.64284121335157
            ],
            [
              16.47599260242765,
              47.64287084169881
            ],
            [
              16.47589789605853,
              47.64290452011126
            ],
            [
              16.47583860047776,
              47.642921518937236
            ],
            [
              16.475875988134828,
              47.64298179212612
            ],
            [
              16.475902161802633,
              47.64307057595392
            ],
            [
              16.47592215627084,
              47.643151339317605
            ],
            [
              16.475948330108107,
              47.64324012313059
            ],
            [
              16.475968636865527,
              47.64333303690887
            ],
            [
              16.47598266031489,
              47.643413880087486
            ],
            [
              16.47601382753617,
              47.64346451271209
            ]
          ]
        ]
      }
    }
  ]
}